EUTELSAT QUANTUM        
1 49056U 21069B   25248.17417569  .00000124  00000+0  00000+0 0  9998
2 49056   0.0488 297.1580 0002119 253.9109 263.8722  1.00273370 15076
EUTELSAT KONNECT VHTS   
1 53765U 22110A   25247.66581777  .00000015  00000+0  00000+0 0  9993
2 53765   0.0552 104.3137 0002877  40.8660  81.2337  1.00268522  3965
EUTELSAT HOTBIRD 13F    
1 54048U 22134A   25248.16732900  .00000085  00000+0  00000+0 0  9993
2 54048   0.0593 293.0992 0001938  72.5184  52.1468  1.00270865 10514
EUTELSAT HOTBIRD 13G    
1 54225U 22146A   25248.16724233  .00000085  00000+0  00000+0 0  9993
2 54225   0.0518 233.5401 0002095 301.0972 243.0903  1.00270752  4605
EUTELSAT 10B            
1 54259U 22157A   25247.66729110  .00000067  00000+0  00000+0 0  9995
2 54259   0.0559 102.4708 0001812 358.2619 133.5464  1.00270703 10157
EUTELSAT 36D            
1 59346U 24059A   25248.17183568  .00000153  00000+0  00000+0 0  9994
2 59346   0.0075 175.0127 0000347 323.0865 304.1517  1.00271379  5281
